ONEWEB-0346             
1 49212U 21083AC  25269.70245687  .00000047  00000+0  87135-4 0  9993
2 49212  87.9215  27.7917 0001967  81.5872 278.5484 13.18688563195258
ONEWEB-0348             
1 49213U 21083AD  25269.70776421 -.00000008  00000+0 -51447-4 0  9995
2 49213  87.9245 326.9827 0002495  93.5376 266.6043 13.20772573202037
ONEWEB-0350             
1 49214U 21083AE  25269.69857526 -.00000285  00000+0 -81462-3 0  9996
2 49214  87.9054  12.5714 0002075 103.6260 256.5101 13.13469042196343
ONEWEB-0351             
1 49215U 21083AF  25269.62556698 -.00000046  00000+0 -14525-3 0  9997
2 49215  87.9260 326.9883 0001787 125.9087 234.2213 13.20770731201987
ONEWEB-0352             
1 49216U 21083AG  25269.75528054  .00000089  00000+0  20821-3 0  9998
2 49216  87.9036  12.5932 0001588 116.6033 243.5259 13.13468852196446
ONEWEB-0354             
1 49217U 21083AH  25269.72671286  .00000045  00000+0  79481-4 0  9991
2 49217  87.9257 326.9659 0002189  98.2301 261.9081 13.20770865202039
ONEWEB-0355             
1 49218U 21083AJ  25269.70803308 -.00000224  00000+0 -64812-3 0  9994
2 49218  87.9047  12.6101 0001866 107.2101 252.9233 13.13470307196310
ONEWEB-0357             
1 49219U 21083AK  25269.72356008  .00000030  00000+0  42457-4 0  9992
2 49219  87.9250 326.9659 0001912 102.0175 258.1173 13.20770990202039
ONEWEB-0332             
1 49279U 21090A   25269.69885197 -.00000222  00000+0 -63335-3 0  9990
2 49279  87.9074 342.1943 0001609 103.0953 257.0356 13.14504356192968
ONEWEB-0347             
1 49280U 21090B   25269.71407816 -.00000095  00000+0 -26449-3 0  9996
2 49280  87.9250 326.9811 0001564  92.7674 267.3638 13.20771106196264
ONEWEB-0349             
1 49281U 21090C   25269.59413221  .00000039  00000+0  63274-4 0  9994
2 49281  87.9249 327.0055 0001881 101.8267 258.3077 13.20771615195033
ONEWEB-0353             
1 49282U 21090D   25269.61480400 -.00000498  00000+0 -13765-2 0  9990
2 49282  87.9063 342.1947 0001584 100.6415 259.4894 13.14502275192952
ONEWEB-0356             
1 49283U 21090E   25269.59255557 -.00000007  00000+0 -48013-4 0  9993
2 49283  87.9247 326.9973 0002085  72.7697 287.3665 13.20771539195030
ONEWEB-0358             
1 49284U 21090F   25269.69829940 -.00000025  00000+0 -92838-4 0  9992
2 49284  87.9257 326.9709 0001945  93.4823 266.6533 13.20770504195770
ONEWEB-0359             
1 49285U 21090G   25269.69514659 -.00000007  00000+0 -49457-4 0  9990
2 49285  87.9248 326.9772 0002250  99.1945 260.9443 13.20770608195759
ONEWEB-0360             
1 49286U 21090H   25269.68567770  .00000043  00000+0  74503-4 0  9990
2 49286  87.9249 326.9882 0002006  99.4782 260.6578 13.20770698195063
