[{"OBJECT_NAME":"ONEWEB-0346","OBJECT_ID":"2021-083AC","EPOCH":"2025-09-26T16:51:32.273568","MEAN_MOTION":13.18688563,"ECCENTRICITY":0.00019677,"INCLINATION":87.9215,"RA_OF_ASC_NODE":27.7917,"ARG_OF_PERICENTER":81.5872,"MEAN_ANOMALY":278.5484,"EPHEMERIS_TYPE":0,"CLASSIFICATION_TYPE":"U","NORAD_CAT_ID":49212,"ELEMENT_SET_NO":999,"REV_AT_EPOCH":19525,"BSTAR":8.7135112e-5,"MEAN_MOTION_DOT":4.7e-7,"MEAN_MOTION_DDOT":0},{"OBJECT_NAME":"ONEWEB-0348","OBJECT_ID":"2021-083AD","EPOCH":"2025-09-26T16:59:10.827744","MEAN_MOTION":13.20772573,"ECCENTRICITY":0.00024956,"INCLINATION":87.9245,"RA_OF_ASC_NODE":326.9827,"ARG_OF_PERICENTER":93.5376,"MEAN_ANOMALY":266.6043,"EPHEMERIS_TYPE":0,"CLASSIFICATION_TYPE":"U","NORAD_CAT_ID":49213,"ELEMENT_SET_NO":999,"REV_AT_EPOCH":20203,"BSTAR":-5.1447039e-5,"MEAN_MOTION_DOT":-8.0e-8,"MEAN_MOTION_DDOT":0},{"OBJECT_NAME":"ONEWEB-0350","OBJECT_ID":"2021-083AE","EPOCH":"2025-09-26T16:45:56.902464","MEAN_MOTION":13.13469042,"ECCENTRICITY":0.00020755,"INCLINATION":87.9054,"RA_OF_ASC_NODE":12.5714,"ARG_OF_PERICENTER":103.626,"MEAN_ANOMALY":256.5101,"EPHEMERIS_TYPE":0,"CLASSIFICATION_TYPE":"U","NORAD_CAT_ID":49214,"ELEMENT_SET_NO":999,"REV_AT_EPOCH":19634,"BSTAR":-0.00081462284,"MEAN_MOTION_DOT":-2.85e-6,"MEAN_MOTION_DDOT":0},{"OBJECT_NAME":"ONEWEB-0351","OBJECT_ID":"2021-083AF","EPOCH":"2025-09-26T15:00:48.987072","MEAN_MOTION":13.20770731,"ECCENTRICITY":0.00017875,"INCLINATION":87.926,"RA_OF_ASC_NODE":326.9883,"ARG_OF_PERICENTER":125.9087,"MEAN_ANOMALY":234.2213,"EPHEMERIS_TYPE":0,"CLASSIFICATION_TYPE":"U","NORAD_CAT_ID":49215,"ELEMENT_SET_NO":999,"REV_AT_EPOCH":20198,"BSTAR":-0.00014525079,"MEAN_MOTION_DOT":-4.6e-7,"MEAN_MOTION_DDOT":0},{"OBJECT_NAME":"ONEWEB-0352","OBJECT_ID":"2021-083AG","EPOCH":"2025-09-26T18:07:36.238656","MEAN_MOTION":13.13468852,"ECCENTRICITY":0.0001588,"INCLINATION":87.9036,"RA_OF_ASC_NODE":12.5932,"ARG_OF_PERICENTER":116.6033,"MEAN_ANOMALY":243.5259,"EPHEMERIS_TYPE":0,"CLASSIFICATION_TYPE":"U","NORAD_CAT_ID":49216,"ELEMENT_SET_NO":999,"REV_AT_EPOCH":19644,"BSTAR":0.0002082051,"MEAN_MOTION_DOT":8.9e-7,"MEAN_MOTION_DDOT":0},{"OBJECT_NAME":"ONEWEB-0354","OBJECT_ID":"2021-083AH","EPOCH":"2025-09-26T17:26:27.991104","MEAN_MOTION":13.20770865,"ECCENTRICITY":0.00021897,"INCLINATION":87.9257,"RA_OF_ASC_NODE":326.9659,"ARG_OF_PERICENTER":98.2301,"MEAN_ANOMALY":261.9081,"EPHEMERIS_TYPE":0,"CLASSIFICATION_TYPE":"U","NORAD_CAT_ID":49217,"ELEMENT_SET_NO":999,"REV_AT_EPOCH":20203,"BSTAR":7.9480885e-5,"MEAN_MOTION_DOT":4.5e-7,"MEAN_MOTION_DDOT":0},{"OBJECT_NAME":"ONEWEB-0355","OBJECT_ID":"2021-083AJ","EPOCH":"2025-09-26T16:59:34.058112","MEAN_MOTION":13.13470307,"ECCENTRICITY":0.00018665,"INCLINATION":87.9047,"RA_OF_ASC_NODE":12.6101,"ARG_OF_PERICENTER":107.2101,"MEAN_ANOMALY":252.9233,"EPHEMERIS_TYPE":0,"CLASSIFICATION_TYPE":"U","NORAD_CAT_ID":49218,"ELEMENT_SET_NO":999,"REV_AT_EPOCH":19631,"BSTAR":-0.00064812196,"MEAN_MOTION_DOT":-2.24e-6,"MEAN_MOTION_DDOT":0},{"OBJECT_NAME":"ONEWEB-0357","OBJECT_ID":"2021-083AK","EPOCH":"2025-09-26T17:21:55.590912","MEAN_MOTION":13.2077099,"ECCENTRICITY":0.00019122,"INCLINATION":87.925,"RA_OF_ASC_NODE":326.9659,"ARG_OF_PERICENTER":102.0175,"MEAN_ANOMALY":258.1173,"EPHEMERIS_TYPE":0,"CLASSIFICATION_TYPE":"U","NORAD_CAT_ID":49219,"ELEMENT_SET_NO":999,"REV_AT_EPOCH":20203,"BSTAR":4.2456862e-5,"MEAN_MOTION_DOT":3.0e-7,"MEAN_MOTION_DDOT":0},{"OBJECT_NAME":"ONEWEB-0332","OBJECT_ID":"2021-090A","EPOCH":"2025-09-26T16:46:20.810208","MEAN_MOTION":13.14504356,"ECCENTRICITY":0.00016093,"INCLINATION":87.9074,"RA_OF_ASC_NODE":342.1943,"ARG_OF_PERICENTER":103.0953,"MEAN_ANOMALY":257.0356,"EPHEMERIS_TYPE":0,"CLASSIFICATION_TYPE":"U","NORAD_CAT_ID":49279,"ELEMENT_SET_NO":999,"REV_AT_EPOCH":19296,"BSTAR":-0.00063335396,"MEAN_MOTION_DOT":-2.22e-6,"MEAN_MOTION_DDOT":0},{"OBJECT_NAME":"ONEWEB-0347","OBJECT_ID":"2021-090B","EPOCH":"2025-09-26T17:08:16.353024","MEAN_MOTION":13.20771106,"ECCENTRICITY":0.00015642,"INCLINATION":87.925,"RA_OF_ASC_NODE":326.9811,"ARG_OF_PERICENTER":92.7674,"MEAN_ANOMALY":267.3638,"EPHEMERIS_TYPE":0,"CLASSIFICATION_TYPE":"U","NORAD_CAT_ID":49280,"ELEMENT_SET_NO":999,"REV_AT_EPOCH":19626,"BSTAR":-0.00026448733,"MEAN_MOTION_DOT":-9.5e-7,"MEAN_MOTION_DDOT":0},{"OBJECT_NAME":"ONEWEB-0349","OBJECT_ID":"2021-090C","EPOCH":"2025-09-26T14:15:33.022944","MEAN_MOTION":13.20771615,"ECCENTRICITY":0.00018812,"INCLINATION":87.9249,"RA_OF_ASC_NODE":327.0055,"ARG_OF_PERICENTER":101.8267,"MEAN_ANOMALY":258.3077,"EPHEMERIS_TYPE":0,"CLASSIFICATION_TYPE":"U","NORAD_CAT_ID":49281,"ELEMENT_SET_NO":999,"REV_AT_EPOCH":19503,"BSTAR":6.3274288e-5,"MEAN_MOTION_DOT":3.9e-7,"MEAN_MOTION_DDOT":0},{"OBJECT_NAME":"ONEWEB-0353","OBJECT_ID":"2021-090D","EPOCH":"2025-09-26T14:45:19.065600","MEAN_MOTION":13.14502275,"ECCENTRICITY":0.00015849,"INCLINATION":87.9063,"RA_OF_ASC_NODE":342.1947,"ARG_OF_PERICENTER":100.6415,"MEAN_ANOMALY":259.4894,"EPHEMERIS_TYPE":0,"CLASSIFICATION_TYPE":"U","NORAD_CAT_ID":49282,"ELEMENT_SET_NO":999,"REV_AT_EPOCH":19295,"BSTAR":-0.001376549,"MEAN_MOTION_DOT":-4.98e-6,"MEAN_MOTION_DDOT":0},{"OBJECT_NAME":"ONEWEB-0356","OBJECT_ID":"2021-090E","EPOCH":"2025-09-26T14:13:16.801248","MEAN_MOTION":13.20771539,"ECCENTRICITY":0.00020856,"INCLINATION":87.9247,"RA_OF_ASC_NODE":326.9973,"ARG_OF_PERICENTER":72.7697,"MEAN_ANOMALY":287.3665,"EPHEMERIS_TYPE":0,"CLASSIFICATION_TYPE":"U","NORAD_CAT_ID":49283,"ELEMENT_SET_NO":999,"REV_AT_EPOCH":19503,"BSTAR":-4.801344e-5,"MEAN_MOTION_DOT":-7.0e-8,"MEAN_MOTION_DDOT":0},{"OBJECT_NAME":"ONEWEB-0358","OBJECT_ID":"2021-090F","EPOCH":"2025-09-26T16:45:33.068160","MEAN_MOTION":13.20770504,"ECCENTRICITY":0.00019456,"INCLINATION":87.9257,"RA_OF_ASC_NODE":326.9709,"ARG_OF_PERICENTER":93.4823,"MEAN_ANOMALY":266.6533,"EPHEMERIS_TYPE":0,"CLASSIFICATION_TYPE":"U","NORAD_CAT_ID":49284,"ELEMENT_SET_NO":999,"REV_AT_EPOCH":19577,"BSTAR":-9.2838086e-5,"MEAN_MOTION_DOT":-2.5e-7,"MEAN_MOTION_DDOT":0},{"OBJECT_NAME":"ONEWEB-0359","OBJECT_ID":"2021-090G","EPOCH":"2025-09-26T16:41:00.665376","MEAN_MOTION":13.20770608,"ECCENTRICITY":0.00022507,"INCLINATION":87.9248,"RA_OF_ASC_NODE":326.9772,"ARG_OF_PERICENTER":99.1945,"MEAN_ANOMALY":260.9443,"EPHEMERIS_TYPE":0,"CLASSIFICATION_TYPE":"U","NORAD_CAT_ID":49285,"ELEMENT_SET_NO":999,"REV_AT_EPOCH":19575,"BSTAR":-4.9457381e-5,"MEAN_MOTION_DOT":-7.0e-8,"MEAN_MOTION_DDOT":0},{"OBJECT_NAME":"ONEWEB-0360","OBJECT_ID":"2021-090H","EPOCH":"2025-09-26T16:27:22.553280","MEAN_MOTION":13.20770698,"ECCENTRICITY":0.00020064,"INCLINATION":87.9249,"RA_OF_ASC_NODE":326.9882,"ARG_OF_PERICENTER":99.4782,"MEAN_ANOMALY":260.6578,"EPHEMERIS_TYPE":0,"CLASSIFICATION_TYPE":"U","NORAD_CAT_ID":49286,"ELEMENT_SET_NO":999,"REV_AT_EPOCH":19506,"BSTAR":7.4503063e-5,"MEAN_MOTION_DOT":4.3e-7,"MEAN_MOTION_DDOT":0}]
